SatCatId,ObjectName,LaunchYear,OrbitalPeriod,LaunchMass,StatusCode,Inclination,Status,UcsData,OrbitClassEstimated,LaunchSiteCountry,Owner,UseType,Purpose,LaunchVehicleClass,TLE1,TLE2,MeanMotion,Eccentricity,OrbitClass
51980,STARLINK-3649,2022,95.44,260.0,+,53.22,Active,1,LEO,USA,USA,Commercial,Communications,Falcon,1 51980U 22025AA  24028.89738167  .00003369  00000+0  22976-3 0  9998,2 51980  53.2186 259.3359 0001619  73.9162 286.2008 15.08823262105785,15.08823262,0.0001619,LEO
51981,STARLINK-3635,2022,95.44,260.0,+,53.22,Active,1,LEO,USA,USA,Commercial,Communications,Falcon,1 51981U 22025AB  24028.91209449 -.00000725  00000+0 -27450-4 0  9996,2 51981  53.2175 259.2707 0001562  99.0272 261.0896 15.08839721104690,15.08839721,0.0001562,LEO
51982,STARLINK-3650,2022,95.44,260.0,+,53.22,Active,1,LEO,USA,USA,Commercial,Communications,Falcon,1 51982U 22025AC  24029.02617292 -.00002512  00000+0 -13970-3 0  9996,2 51982  53.2174 258.7619 0001602  74.9849 285.1320 15.08855583105811,15.08855583,0.0001602,LEO
51983,STARLINK-3655,2022,95.44,260.0,+,53.22,Active,1,LEO,USA,USA,Commercial,Communications,Falcon,1 51983U 22025AD  24028.90841893  .00001924  00000+0  13900-3 0  9996,2 51983  53.2175 259.2847 0001432  81.1245 278.9909 15.08830223104695,15.08830223,0.0001432,LEO
51984,STARLINK-3664,2022,95.44,260.0,+,53.22,Active,1,LEO,USA,USA,Commercial,Communications,Falcon,1 51984U 22025AE  24028.80538114  .00002966  00000+0  20445-3 0  9994,2 51984  53.2163 259.7541 0001518 108.8009 251.3148 15.08824969104688,15.08824969,0.0001518,LEO
51985,STARLINK-3651,2022,95.44,260.0,+,53.22,Active,1,LEO,USA,USA,Commercial,Communications,Falcon,1 51985U 22025AF  24028.90201656  .00002541  00000+0  17776-3 0  9996,2 51985  53.2181 259.3271 0001506  74.2849 285.8309 15.08829525105786,15.08829525,0.0001506,LEO
51986,STARLINK-3645,2022,95.44,260.0,+,53.22,Active,1,LEO,USA,USA,Commercial,Communications,Falcon,1 51986U 22025AG  24028.91575726  .00000006  00000+0  18489-4 0  9997,2 51986  53.2175 259.1039 0001650 108.3220 251.7952 15.08839065104709,15.08839065,0.000165,LEO
51987,STARLINK-3644,2022,95.44,260.0,+,53.22,Active,1,LEO,USA,USA,Commercial,Communications,Falcon,1 51987U 22025AH  24029.14393325  .00000607  00000+0  56216-4 0  9994,2 51987  53.2153 258.2380 0001338  95.4709 264.6436 15.08845024105822,15.08845024,0.0001338,LEO
51988,STARLINK-3640,2022,95.44,260.0,+,53.22,Active,1,LEO,USA,USA,Commercial,Communications,Falcon,1 51988U 22025AJ  24028.86057860  .00000144  00000+0  27113-4 0  9994,2 51988  53.2171 259.5022 0001501 108.2806 251.8350 15.08838017104694,15.08838017,0.0001501,LEO
51989,STARLINK-3642,2022,95.44,260.0,+,53.22,Active,1,LEO,USA,USA,Commercial,Communications,Falcon,1 51989U 22025AK  24028.94154224  .00000074  00000+0  22714-4 0  9990,2 51989  53.2154 259.1470 0001439  62.2044 297.9094 15.08837931104704,15.08837931,0.0001439,LEO
51990,STARLINK-3657,2022,95.44,260.0,+,53.21,Active,1,LEO,USA,USA,Commercial,Communications,Falcon,1 51990U 22025AL  24028.97649129 -.00001923  00000+0 -10274-3 0  9991,2 51990  53.2157 238.9878 0001384  84.3367 275.7783 15.08855264106089,15.08855264,0.0001384,LEO
51991,STARLINK-3652,2022,95.44,260.0,+,53.22,Active,1,LEO,USA,USA,Commercial,Communications,Falcon,1 51991U 22025AM  24028.86793715 -.00000416  00000+0 -80494-5 0  9990,2 51991  53.2177 259.4793 0001810 116.2648 243.8530 15.08839803105780,15.08839803,0.000181,LEO
51992,STARLINK-3643,2022,95.44,260.0,+,53.22,Active,1,LEO,USA,USA,Commercial,Communications,Falcon,1 51992U 22025AN  24028.89921735 -.00000092  00000+0  12281-4 0  9996,2 51992  53.2164 239.3330 0001413  89.1295 270.9859 15.08836587104540,15.08836587,0.0001413,LEO
51993,STARLINK-3648,2022,95.44,260.0,+,53.22,Active,1,LEO,USA,USA,Commercial,Communications,Falcon,1 51993U 22025AP  24028.92313699  .00000149  00000+0  27473-4 0  9996,2 51993  53.2173 259.2284 0001351 102.7098 257.4046 15.08842020104709,15.0884202,0.0001351,LEO
51994,STARLINK-3647,2022,95.44,260.0,+,53.22,Active,1,LEO,USA,USA,Commercial,Communications,Falcon,1 51994U 22025AQ  24028.89554805  .00010652  00000+0  68732-3 0  9991,2 51994  53.2167 239.3515 0001696  92.0541 268.0645 15.08788649106087,15.08788649,0.0001696,LEO
51995,STARLINK-3636,2022,95.44,260.0,+,53.22,Active,1,LEO,USA,USA,Commercial,Communications,Falcon,1 51995U 22025AR  24028.90657679  .00000236  00000+0  32954-4 0  9992,2 51995  53.2170 239.3032 0001665  59.9069 300.2088 15.08843345104543,15.08843345,0.0001665,LEO
51996,STARLINK-3538,2022,95.44,260.0,+,53.22,Active,1,LEO,USA,USA,Commercial,Communications,Falcon,1 51996U 22025AS  24028.95809781  .00003385  00000+0  23058-3 0  9993,2 51996  53.2148 239.0672 0001344  92.6460 267.4686 15.08852696106087,15.08852696,0.0001344,LEO
51997,STARLINK-3589,2022,95.44,260.0,+,53.22,Active,1,LEO,USA,USA,Commercial,Communications,Falcon,1 51997U 22025AT  24028.90289820  .00000327  00000+0  38663-4 0  9997,2 51997  53.2162 239.3179 0001420  84.6787 275.4367 15.08839804106066,15.08839804,0.000142,LEO
51998,STARLINK-3618,2022,95.44,260.0,+,53.21,Active,1,LEO,USA,USA,Commercial,Communications,Falcon,1 51998U 22025AU  24028.79617569  .00003484  00000+0  23684-3 0  9993,2 51998  53.2149 239.7985 0001304  80.9841 279.1298 15.08845172104542,15.08845172,0.0001304,LEO
51999,STARLINK-3667,2022,95.44,260.0,+,53.22,Active,1,LEO,USA,USA,Commercial,Communications,Falcon,1 51999U 22025AV  24028.88818300  .00001430  00000+0  10794-3 0  9997,2 51999  53.2172 239.3733 0001512  85.6933 274.4232 15.08842900104554,15.088429,0.0001512,LEO
52000,STARLINK-3653,2022,95.44,260.0,+,53.22,Active,1,LEO,USA,USA,Commercial,Communications,Falcon,1 52000U 22025AW  24028.84768340 -.00001553  00000+0 -79497-4 0  9999,2 52000  53.2151 239.4794 0001457  82.1628 277.9529 15.08844956106084,15.08844956,0.0001457,LEO
52001,STARLINK-3659,2022,95.44,260.0,+,53.22,Active,1,LEO,USA,USA,Commercial,Communications,Falcon,1 52001U 22025AX  24028.85968349 -.00002457  00000+0 -13636-3 0  9998,2 52001  53.2165 239.5219 0001281  81.5366 278.5772 15.08841322104551,15.08841322,0.0001281,LEO
52002,STARLINK-3668,2022,95.44,260.0,+,53.22,Active,1,LEO,USA,USA,Commercial,Communications,Falcon,1 52002U 22025AY  24028.99121523 -.00003065  00000+0 -17448-3 0  9990,2 52002  53.2171 238.9590 0001402  88.8978 271.2175 15.08858355106089,15.08858355,0.0001402,LEO
52003,STARLINK-3654,2022,95.44,260.0,+,53.22,Active,1,LEO,USA,USA,Commercial,Communications,Falcon,1 52003U 22025AZ  24028.85601860 -.00000647  00000+0 -22546-4 0  9992,2 52003  53.2167 239.5766 0001404  86.9870 273.1283 15.08840278104555,15.08840278,0.0001404,LEO
52009,SPACEBEE-121,2022,91.78,2.0,+,97.49,Active,1,LEO,USA,USA,Commercial,Communications,Rocket,1 52009U 22026B   24028.80207312  .00252849  00000+0  20856-2 0  9999,2 52009  97.4871  44.6904 0006563  22.1551 337.9993 15.69549669104465,15.69549669,0.0006563,LEO
52010,SPACEBEE-114,2022,91.47,2.0,+,97.49,Active,1,LEO,USA,USA,Commercial,Communications,Rocket,1 52010U 22026C   24028.99039034  .00318444  00000+0  20658-2 0  9999,2 52010  97.4877  45.8810 0005381  29.5353 330.6215 15.75082041104550,15.75082041,0.0005381,LEO
52011,SPACEBEE-126,2022,91.45,2.0,+,97.49,Active,1,LEO,USA,USA,Commercial,Communications,Rocket,1 52011U 22026D   24029.49488225  .00375437  00000+0  23372-2 0  9997,2 52011  97.4857  46.3032 0004744  27.2198 332.9314 15.75881746104627,15.75881746,0.0004744,LEO
52012,SPACEBEE-118,2022,91.34,2.0,+,97.48,Active,1,LEO,USA,USA,Commercial,Communications,Rocket,1 52012U 22026E   24029.46767276  .00418736  00000+0  23670-2 0  9992,2 52012  97.4847  46.8247 0004541  32.1563 327.9979 15.77967583104667,15.77967583,0.0004541,LEO
52013,SPACEBEE-120,2022,91.43,2.0,+,97.48,Active,1,LEO,USA,USA,Commercial,Communications,Rocket,1 52013U 22026F   24029.48581223  .00375867  00000+0  22998-2 0  9990,2 52013  97.4845  46.4377 0004257  19.3446 340.7980 15.76279681104633,15.76279681,0.0004257,LEO
52014,SPACEBEE-122,2022,91.16,2.0,+,97.48,Active,1,LEO,USA,USA,Commercial,Communications,Rocket,1 52014U 22026G   24029.47686245  .00498385  00000+0  24029-2 0  9998,2 52014  97.4818  46.8933 0003519  41.3018 318.8515 15.81301725104660,15.81301725,0.0003519,LEO
52015,SPACEBEE-119,2022,91.69,2.0,+,97.49,Active,1,LEO,USA,USA,Commercial,Communications,Rocket,1 52015U 22026H   24028.78197389  .00277617  00000+0  21323-2 0  9995,2 52015  97.4870  45.0146 0006095  23.9550 336.1995 15.71205832104470,15.71205832,0.0006095,LEO
52016,SPACEBEE-115,2022,91.89,2.0,+,97.49,Active,1,LEO,USA,USA,Commercial,Communications,Rocket,1 52016U 22026J   24029.49047227  .00238237  00000+0  21112-2 0  9991,2 52016  97.4902  45.6713 0006536  14.6927 345.4522 15.67832383104570,15.67832383,0.0006536,LEO
52017,ORESAT0,2022,93.69,1.0,+,97.51,Active,1,LEO,USA,USA,Civil,Technology Development,Rocket,1 52017U 22026K   24029.50406271  .00040975  00000+0  11212-2 0  9992,2 52017  97.5067  39.3531 0016953  11.8169 348.3470 15.37091102104154,15.37091102,0.0016953,LEO
52020,SPACEBEE-127,2022,92.14,2.0,+,97.49,Active,1,LEO,USA,USA,Commercial,Communications,Rocket,1 52020U 22026N   24029.25982756  .00190572  00000+0  20313-2 0  9996,2 52020  97.4900  44.6459 0007678  12.0431 348.1010 15.63316913104449,15.63316913,0.0007678,LEO
52021,SPACEBEE-125,2022,91.22,2.0,+,97.48,Active,1,LEO,USA,USA,Commercial,Communications,Rocket,1 52021U 22026P   24029.30909871  .00461590  00000+0  23753-2 0  9992,2 52021  97.4814  46.7962 0003922  31.2034 328.9466 15.79960060104510,15.7996006,0.0003922,LEO
52022,SPACEBEE-117,2022,92.01,2.0,+,97.49,Active,1,LEO,USA,USA,Commercial,Communications,Rocket,1 52022U 22026Q   24029.49142993  .00215082  00000+0  20726-2 0  9997,2 52022  97.4894  45.3464 0006849  13.3645 346.7795 15.65810486104425,15.65810486,0.0006849,LEO
